<?xml version="1.0" encoding="UTF-8"?>
<ndm xmlns:xsi="http://www.w3.org/2001/XMLSchema-instance" xsi:noNamespaceSchemaLocation="https://sanaregistry.org/r/ndmxml_unqualified/ndmxml-2.0.0-master-2.0.xsd">
<omm id="CCSDS_OMM_VERS" version="2.0">
<header><CREATION_DATE/><ORIGINATOR/></header><body><segment><metadata><OBJECT_NAME>FUTABA</OBJECT_NAME><OBJECT_ID>1998-067UC</OBJECT_ID><CENTER_NAME>EARTH</CENTER_NAME><REF_FRAME>TEME</REF_FRAME><TIME_SYSTEM>UTC</TIME_SYSTEM><MEAN_ELEMENT_THEORY>SGP4</MEAN_ELEMENT_THEORY></metadata><data><meanElements><EPOCH>2022-09-05T04:05:19.469472</EPOCH><MEAN_MOTION>15.52328462</MEAN_MOTION><ECCENTRICITY>.0005547</ECCENTRICITY><INCLINATION>51.6406</INCLINATION><RA_OF_ASC_NODE>300.0701</RA_OF_ASC_NODE><ARG_OF_PERICENTER>226.3895</ARG_OF_PERICENTER><MEAN_ANOMALY>133.6635</MEAN_ANOMALY></meanElements><tleParameters><EPHEMERIS_TYPE>0</EPHEMERIS_TYPE><CLASSIFICATION_TYPE>U</CLASSIFICATION_TYPE><NORAD_CAT_ID>53463</NORAD_CAT_ID><ELEMENT_SET_NO>999</ELEMENT_SET_NO><REV_AT_EPOCH>370</REV_AT_EPOCH><BSTAR>.74497E-3</BSTAR><MEAN_MOTION_DOT>.46021E-3</MEAN_MOTION_DOT><MEAN_MOTION_DDOT>0</MEAN_MOTION_DDOT></tleParameters></data></segment></body></omm>
<omm id="CCSDS_OMM_VERS" version="2.0">
<header><CREATION_DATE/><ORIGINATOR/></header><body><segment><metadata><OBJECT_NAME>TUMNANOSAT</OBJECT_NAME><OBJECT_ID>1998-067UD</OBJECT_ID><CENTER_NAME>EARTH</CENTER_NAME><REF_FRAME>TEME</REF_FRAME><TIME_SYSTEM>UTC</TIME_SYSTEM><MEAN_ELEMENT_THEORY>SGP4</MEAN_ELEMENT_THEORY></metadata><data><meanElements><EPOCH>2022-09-05T08:40:15.149280</EPOCH><MEAN_MOTION>15.52585384</MEAN_MOTION><ECCENTRICITY>.000531</ECCENTRICITY><INCLINATION>51.6408</INCLINATION><RA_OF_ASC_NODE>299.0952</RA_OF_ASC_NODE><ARG_OF_PERICENTER>230.2470</ARG_OF_PERICENTER><MEAN_ANOMALY>129.8053</MEAN_ANOMALY></meanElements><tleParameters><EPHEMERIS_TYPE>0</EPHEMERIS_TYPE><CLASSIFICATION_TYPE>U</CLASSIFICATION_TYPE><NORAD_CAT_ID>53464</NORAD_CAT_ID><ELEMENT_SET_NO>999</ELEMENT_SET_NO><REV_AT_EPOCH>373</REV_AT_EPOCH><BSTAR>.83715E-3</BSTAR><MEAN_MOTION_DOT>.52297E-3</MEAN_MOTION_DOT><MEAN_MOTION_DDOT>0</MEAN_MOTION_DDOT></tleParameters></data></segment></body></omm>
</ndm>
