FUTABA                  
1 53463U 98067UC  22248.17036423  .00046021  00000+0  74497-3 0  9991
2 53463  51.6406 300.0701 0005547 226.3895 133.6635 15.52328462  3707
TUMNANOSAT              
1 53464U 98067UD  22248.36128645  .00052297  00000+0  83715-3 0  9996
2 53464  51.6408 299.0952 0005310 230.2470 129.8053 15.52585384  3738
